[{"OBJECT_NAME":"STARLINK-3524","OBJECT_ID":"2022-016H","EPOCH":"2026-03-09T22:16:33.425760","MEAN_MOTION":15.08801177,"ECCENTRICITY":0.00014166,"INCLINATION":53.2187,"RA_OF_ASC_NODE":328.0555,"ARG_OF_PERICENTER":109.7277,"MEAN_ANOMALY":250.3868,"EPHEMERIS_TYPE":0,"CLASSIFICATION_TYPE":"U","NORAD_CAT_ID":51721,"ELEMENT_SET_NO":999,"REV_AT_EPOCH":22346,"BSTAR":0.00044620561,"MEAN_MOTION_DOT":6.813e-5,"MEAN_MOTION_DDOT":0},{"OBJECT_NAME":"CZ-6A DEB","OBJECT_ID":"2022-151UT","EPOCH":"2026-03-09T17:50:02.810976","MEAN_MOTION":14.9898329,"ECCENTRICITY":0.00453187,"INCLINATION":98.6222,"RA_OF_ASC_NODE":145.5138,"ARG_OF_PERICENTER":180.208,"MEAN_ANOMALY":179.9129,"EPHEMERIS_TYPE":0,"CLASSIFICATION_TYPE":"U","NORAD_CAT_ID":55003,"ELEMENT_SET_NO":999,"REV_AT_EPOCH":17561,"BSTAR":0.0047870048,"MEAN_MOTION_DOT":0.00059614,"MEAN_MOTION_DDOT":0}]
